{"type": "FeatureCollection", "features": [ {"type": "Feature", "properties": {"norad_id": 65077, "name": "CREW DRAGON 11", "group": "stations", "lat": -51.52000375560048, "lon": 68.0904995839968, "alt_km": 421.4120969922469, "timestamp": "2025-12-08T15:42:48.554217+00:00", "meta": {"OBJECT_NAME": "CREW DRAGON 11", "OBJECT_ID": "2025-166A", "EPOCH": "2025-12-08T05:16:39.559584", "MEAN_MOTION": 15.49412336, "ECCENTRICITY": 0.00034318, "INCLINATION": 51.6305, "RA_OF_ASC_NODE": 164.8582, "ARG_OF_PERICENTER": 219.3069, "MEAN_ANOMALY": 140.7671, "EPHEMERIS_TYPE": 0, "CLASSIFICATION_TYPE": "U", "NORAD_CAT_ID": 65077, "ELEMENT_SET_NO": 999, "REV_AT_EPOCH": 214, "BSTAR": 0.00022082399, "MEAN_MOTION_DOT": 0.00011911, "MEAN_MOTION_DDOT": 0}, "tle": {"line1": "1 65077U 25166A   25342.21990231  .00011911  00000+0  22082-3 0  9997", "line2": "2 65077  51.6305 164.8582 0003431 219.3069 140.7671 15.49412336  2143"}}, "geometry": {"type": "Point", "coordinates": [68.0904995839968, -51.52000375560048]}}, {"type": "Feature", "properties": {"norad_id": 65304, "name": "DRAGON CRS-33", "group": "stations", "lat": -51.520003796276264, "lon": 68.09050061812819, "alt_km": 421.4120970122631, "timestamp": "2025-12-08T15:42:48.554227+00:00", "meta": {"OBJECT_NAME": "DRAGON CRS-33", "OBJECT_ID": "2025-186A", "EPOCH": "2025-12-08T05:16:39.559584", "MEAN_MOTION": 15.49412336, "ECCENTRICITY": 0.00034318, "INCLINATION": 51.6305, "RA_OF_ASC_NODE": 164.8582, "ARG_OF_PERICENTER": 219.3069, "MEAN_ANOMALY": 140.7671, "EPHEMERIS_TYPE": 0, "CLASSIFICATION_TYPE": "U", "NORAD_CAT_ID": 65304, "ELEMENT_SET_NO": 999, "REV_AT_EPOCH": 11, "BSTAR": 0.00022082399, "MEAN_MOTION_DOT": 0.00011911, "MEAN_MOTION_DDOT": 0}, "tle": {"line1": "1 65304U 25186A   25342.21990231  .00011911  00000+0  22082-3 0  9992", "line2": "2 65304  51.6305 164.8582 0003431 219.3069 140.7671 15.49412336   111"}}, "geometry": {"type": "Point", "coordinates": [68.09050061812819, -51.520003796276264]}}, {"type": "Feature", "properties": {"norad_id": 65586, "name": "PROGRESS-MS 32", "group": "stations", "lat": -51.520003845087196, "lon": 68.09050185908576, "alt_km": 421.41209703628374, "timestamp": "2025-12-08T15:42:48.554239+00:00", "meta": {"OBJECT_NAME": "PROGRESS-MS 32", "OBJECT_ID": "2025-204A", "EPOCH": "2025-12-08T05:16:39.559584", "MEAN_MOTION": 15.49412336, "ECCENTRICITY": 0.00034318, "INCLINATION": 51.6305, "RA_OF_ASC_NODE": 164.8582, "ARG_OF_PERICENTER": 219.3069, "MEAN_ANOMALY": 140.7671, "EPHEMERIS_TYPE": 0, "CLASSIFICATION_TYPE": "U", "NORAD_CAT_ID": 65586, "ELEMENT_SET_NO": 999, "REV_AT_EPOCH": 27, "BSTAR": 0.00022082399, "MEAN_MOTION_DOT": 0.00011911, "MEAN_MOTION_DDOT": 0}, "tle": {"line1": "1 65586U 25204A   25342.21990231  .00011911  00000+0  22082-3 0  9995", "line2": "2 65586  51.6305 164.8582 0003431 219.3069 140.7671 15.49412336   270"}}, "geometry": {"type": "Point", "coordinates": [68.09050185908576, -51.520003845087196]}}, {"type": "Feature", "properties": {"norad_id": 65616, "name": "CYGNUS NG-23", "group": "stations", "lat": -51.52000388576297, "lon": 68.09050289321716, "alt_km": 421.412097056299, "timestamp": "2025-12-08T15:42:48.554249+00:00", "meta": {"OBJECT_NAME": "CYGNUS NG-23", "OBJECT_ID": "2025-208A", "EPOCH": "2025-12-08T05:16:39.559584", "MEAN_MOTION": 15.49412336, "ECCENTRICITY": 0.00034318, "INCLINATION": 51.6305, "RA_OF_ASC_NODE": 164.8582, "ARG_OF_PERICENTER": 219.3069, "MEAN_ANOMALY": 140.7671, "EPHEMERIS_TYPE": 0, "CLASSIFICATION_TYPE": "U", "NORAD_CAT_ID": 65616, "ELEMENT_SET_NO": 999, "REV_AT_EPOCH": 22, "BSTAR": 0.00022082399, "MEAN_MOTION_DOT": 0.00011911, "MEAN_MOTION_DDOT": 0}, "tle": {"line1": "1 65616U 25208A   25342.21990231  .00011911  00000+0  22082-3 0  9993", "line2": "2 65616  51.6305 164.8582 0003431 219.3069 140.7671 15.49412336   229"}}, "geometry": {"type": "Point", "coordinates": [68.09050289321716, -51.52000388576297]}}, {"type": "Feature", "properties": {"norad_id": 65729, "name": "DRAGONFLY", "group": "stations", "lat": -48.19368331868266, "lon": 94.26569638730234, "alt_km": 359.4250657748571, "timestamp": "2025-12-08T15:42:48.554259+00:00", "meta": {"OBJECT_NAME": "DRAGONFLY", "OBJECT_ID": "1998-067XH", "EPOCH": "2025-12-08T05:19:35.770656", "MEAN_MOTION": 15.70056695, "ECCENTRICITY": 0.00064071, "INCLINATION": 51.6251, "RA_OF_ASC_NODE": 158.866, "ARG_OF_PERICENTER": 248.889, "MEAN_ANOMALY": 111.1422, "EPHEMERIS_TYPE": 0, "CLASSIFICATION_TYPE": "U", "NORAD_CAT_ID": 65729, "ELEMENT_SET_NO": 999, "REV_AT_EPOCH": 1245, "BSTAR": 0.0012867364, "MEAN_MOTION_DOT": 0.00161054, "MEAN_MOTION_DDOT": 0}, "tle": {"line1": "1 65729U 98067XH  25342.22194179  .00161054  00000+0  12867-2 0  9992", "line2": "2 65729  51.6251 158.8660 0006407 248.8890 111.1422 15.70056695 12459"}}, "geometry": {"type": "Point", "coordinates": [94.26569638730234, -48.19368331868266]}}, {"type": "Feature", "properties": {"norad_id": 65731, "name": "1998-067XK", "group": "stations", "lat": 28.61579861418721, "lon": -176.44578157189537, "alt_km": 374.16298085708877, "timestamp": "2025-12-08T15:42:48.554270+00:00", "meta": {"OBJECT_NAME": "1998-067XK", "OBJECT_ID": "1998-067XK", "EPOCH": "2025-12-08T04:49:23.217024", "MEAN_MOTION": 15.64619204, "ECCENTRICITY": 0.00054425, "INCLINATION": 51.6277, "RA_OF_ASC_NODE": 160.2401, "ARG_OF_PERICENTER": 217.3331, "MEAN_ANOMALY": 142.7286, "EPHEMERIS_TYPE": 0, "CLASSIFICATION_TYPE": "U", "NORAD_CAT_ID": 65731, "ELEMENT_SET_NO": 999, "REV_AT_EPOCH": 1243, "BSTAR": 0.00098566589, "MEAN_MOTION_DOT": 0.00097949, "MEAN_MOTION_DDOT": 0}, "tle": {"line1": "1 65731U 98067XK  25342.20096316  .00097949  00000+0  98567-3 0  9990", "line2": "2 65731  51.6277 160.2401 0005442 217.3331 142.7286 15.64619204 12439"}}, "geometry": {"type": "Point", "coordinates": [-176.44578157189537, 28.61579861418721]}}, {"type": "Feature", "properties": {"norad_id": 65732, "name": "RSP-03", "group": "stations", "lat": -23.021517504385205, "lon": 137.64652310715456, "alt_km": 371.04010705617475, "timestamp": "2025-12-08T15:42:48.554280+00:00", "meta": {"OBJECT_NAME": "RSP-03", "OBJECT_ID": "1998-067XL", "EPOCH": "2025-12-08T05:07:42.531744", "MEAN_MOTION": 15.67171171, "ECCENTRICITY": 0.00061913, "INCLINATION": 51.6259, "RA_OF_ASC_NODE": 159.5673, "ARG_OF_PERICENTER": 221.7076, "MEAN_ANOMALY": 138.3449, "EPHEMERIS_TYPE": 0, "CLASSIFICATION_TYPE": "U", "NORAD_CAT_ID": 65732, "ELEMENT_SET_NO": 999, "REV_AT_EPOCH": 1245, "BSTAR": 0.0011528972, "MEAN_MOTION_DOT": 0.0012755, "MEAN_MOTION_DDOT": 0}, "tle": {"line1": "1 65732U 98067XL  25342.21368671  .00127550  00000+0  11529-2 0  9992", "line2": "2 65732  51.6259 159.5673 0006191 221.7076 138.3449 15.67171171 12452"}}, "geometry": {"type": "Point", "coordinates": [137.64652310715456, -23.021517504385205]}}, {"type": "Feature", "properties": {"norad_id": 65733, "name": "GHS-01", "group": "stations", "lat": 13.7447818752419, "lon": -35.00384249987119, "alt_km": 349.8097612196025, "timestamp": "2025-12-08T15:42:48.554291+00:00", "meta": {"OBJECT_NAME": "GHS-01", "OBJECT_ID": "1998-067XM", "EPOCH": "2025-12-08T02:49:29.282592", "MEAN_MOTION": 15.7246557, "ECCENTRICITY": 0.0006917, "INCLINATION": 51.6275, "RA_OF_ASC_NODE": 158.9257, "ARG_OF_PERICENTER": 247.5151, "MEAN_ANOMALY": 112.5115, "EPHEMERIS_TYPE": 0, "CLASSIFICATION_TYPE": "U", "NORAD_CAT_ID": 65733, "ELEMENT_SET_NO": 999, "REV_AT_EPOCH": 1245, "BSTAR": 0.0014759083, "MEAN_MOTION_DOT": 0.00205689, "MEAN_MOTION_DDOT": 0}, "tle": {"line1": "1 65733U 98067XM  25342.11770003  .00205689  00000+0  14759-2 0  9996", "line2": "2 65733  51.6275 158.9257 0006917 247.5151 112.5115 15.72465570 12457"}}, "geometry": {"type": "Point", "coordinates": [-35.00384249987119, 13.7447818752419]}}, {"type": "Feature", "properties": {"norad_id": 65941, "name": "YOTSUBA-KULOVER", "group": "stations", "lat": -47.09799463874975, "lon": 38.994403157366015, "alt_km": 394.89946372089344, "timestamp": "2025-12-08T15:42:48.554301+00:00", "meta": {"OBJECT_NAME": "YOTSUBA-KULOVER", "OBJECT_ID": "1998-067XN", "EPOCH": "2025-12-07T12:29:23.884512", "MEAN_MOTION": 15.58552395, "ECCENTRICITY": 0.00017957, "INCLINATION": 51.628, "RA_OF_ASC_NODE": 166.1928, "ARG_OF_PERICENTER": 200.639, "MEAN_ANOMALY": 159.453, "EPHEMERIS_TYPE": 0, "CLASSIFICATION_TYPE": "U", "NORAD_CAT_ID": 65941, "ELEMENT_SET_NO": 999, "REV_AT_EPOCH": 904, "BSTAR": 0.0010602119, "MEAN_MOTION_DOT": 0.00083069, "MEAN_MOTION_DDOT": 0}, "tle": {"line1": "1 65941U 98067XN  25341.52041533  .00083069  00000+0  10602-2 0  9999", "line2": "2 65941  51.6280 166.1928 0001795 200.6390 159.4530 15.58552395  9042"}}, "geometry": {"type": "Point", "coordinates": [38.994403157366015, -47.09799463874975]}}, {"type": "Feature", "properties": {"norad_id": 65942, "name": "BOTAN", "group": "stations", "lat": 7.564491539940185, "lon": -26.130119704464615, "alt_km": 380.0120454398093, "timestamp": "2025-12-08T15:42:48.554312+00:00", "meta": {"OBJECT_NAME": "BOTAN", "OBJECT_ID": "1998-067XP", "EPOCH": "2025-12-07T19:01:20.591616", "MEAN_MOTION": 15.61568201, "ECCENTRICITY": 0.00038466, "INCLINATION": 51.6278, "RA_OF_ASC_NODE": 164.2597, "ARG_OF_PERICENTER": 199.4813, "MEAN_ANOMALY": 160.6034, "EPHEMERIS_TYPE": 0, "CLASSIFICATION_TYPE": "U", "NORAD_CAT_ID": 65942, "ELEMENT_SET_NO": 999, "REV_AT_EPOCH": 909, "BSTAR": 0.0014856756, "MEAN_MOTION_DOT": 0.00131716, "MEAN_MOTION_DDOT": 0}, "tle": {"line1": "1 65942U 98067XP  25341.79259944  .00131716  00000+0  14857-2 0  9995", "line2": "2 65942  51.6278 164.2597 0003846 199.4813 160.6034 15.61568201  9090"}}, "geometry": {"type": "Point", "coordinates": [-26.130119704464615, 7.564491539940185]}}]}